QIANFAN-89              
1 63175U 25046S   26005.57734235  .00000251  00000+0  36997-3 0  9992
2 63175  88.9785 317.5727 0018477  58.5367 301.7587 13.50985855 50625
QIANFAN-90              
1 63176U 25046T   26005.60607674  .00000238  00000+0  34915-3 0  9996
2 63176  88.9786 317.5422 0015392  57.3456 302.9178 13.50985803 50642
QIANFAN-91              
1 66033U 25233A   26005.64116895  .00000150  00000+0  20764-3 0  9993
2 66033  88.9932  59.6735 0014621 334.0604  25.9813 13.52865837 11231
QIANFAN-92              
1 66034U 25233B   26005.63981189  .00000124  00000+0  17526-3 0  9992
2 66034  88.9916  59.6692 0014475 333.8785  26.1634 13.50257209 11230
QIANFAN-93              
1 66035U 25233C   26005.57831178  .00000067  00000+0  82658-4 0  9993
2 66035  88.9942  59.6843 0013144 333.7927  26.2559 13.52899285 11221
QIANFAN-94              
1 66036U 25233D   26005.62457644  .00000167  00000+0  17999-3 0  9998
2 66036  88.9939  59.6373 0014222 331.2410  28.7965 13.68549477 11257
QIANFAN-95              
1 66037U 25233E   26005.60680750  .00000300  00000+0  17125-3 0  9993
2 66037  88.9937  59.3780 0012963 334.7847  25.2701 14.07046174 11392
QIANFAN-96              
1 66038U 25233F   26005.60167007  .00000047  00000+0  54557-4 0  9998
2 66038  88.9934  59.6865 0014235 338.4138  21.6412 13.50967772 11229
